NORAD_CAT_ID,OBJECT_NAME,OBJECT_TYPE,EPOCH,MEAN_MOTION,ECCENTRICITY,INCLINATION,RA_OF_ASC_NODE,ARG_OF_PERICENTER,MEAN_ANOMALY,BSTAR,MEAN_MOTION_DOT,MEAN_MOTION_DDOT,TLE_LINE0,TLE_LINE1,TLE_LINE2,SEMIMAJOR_AXIS,PERIOD,APOGEE,PERIGEE,DECAYED
54205.0,STARLINK-5249,PAYLOAD,2023-09-23 17:52:00,15.08847063,0.0001123,53.2176,64.7978,85.8944,274.2176,0.00070469,0.00010947,0.0,0 STARLINK-5249,1 54205U 22141BA  23266.74444751  .00010947  00000-0  70469-3 0  9991,2 54205  53.2176  64.7978 0001123  85.8944 274.2176 15.08847063 50677,6917.859,95.437,540.501,538.947,0.0
54205.0,STARLINK-5249,PAYLOAD,2023-09-24 11:21:15,15.08837958,0.0001061,53.2171,61.5271,87.1947,272.9167,0.00015121,2.119e-05,0.0,0 STARLINK-5249,1 54205U 22141BA  23267.47309077  .00002119  00000-0  15121-3 0  9999,2 54205  53.2171  61.5271 0001061  87.1947 272.9167 15.08837958 50781,6917.887,95.438,540.486,539.018,0.0
54205.0,STARLINK-5249,PAYLOAD,2023-09-24 20:53:33,15.08849862,0.000116,53.2173,59.7436,91.8954,268.2171,0.00036787,5.573e-05,0.0,0 STARLINK-5249,1 54205U 22141BA  23267.87052753  .00005573  00000-0  36787-3 0  9997,2 54205  53.2173  59.7436 0001160  91.8954 268.2171 15.08849862 50617,6917.85,95.437,540.518,538.913,0.0
54205.0,STARLINK-5249,PAYLOAD,2023-09-25 09:36:39,15.08840443,0.0001269,53.2181,57.3623,90.847,269.2668,0.0002013,2.917e-05,0.0,0 STARLINK-5249,1 54205U 22141BA  23268.40045270  .00002917  00000-0  20130-3 0  9997,2 54205  53.2181  57.3623 0001269  90.8470 269.2668 15.08840443 50922,6917.879,95.438,540.622,538.866,0.0
54205.0,STARLINK-5249,PAYLOAD,2023-09-25 17:33:34,15.0885161,0.0001172,53.2176,55.878,93.278,266.8347,0.00033542,5.056e-05,0.0,0 STARLINK-5249,1 54205U 22141BA  23268.73164671  .00005056  00000-0  33542-3 0  9998,2 54205  53.2176  55.8780 0001172  93.2780 266.8347 15.08851610 50977,6917.845,95.437,540.521,538.899,0.0
54205.0,STARLINK-5249,PAYLOAD,2023-09-26 09:27:26,15.08833453,0.0001362,53.2179,52.9015,91.3571,268.7577,-4.3973e-05,-9.88e-06,0.0,0 STARLINK-5249,1 54205U 22141BA  23269.39405645 -.00000988  00000-0 -43973-4 0  9991,2 54205  53.2179  52.9015 0001362  91.3571 268.7577 15.08833453 51070,6917.9,95.438,540.708,538.823,0.0
54205.0,STARLINK-5249,PAYLOAD,2023-09-26 14:13:35,15.08834871,0.0001417,53.2179,52.0094,97.0082,263.1071,-4.7361e-06,-3.63e-06,0.0,0 STARLINK-5249,1 54205U 22141BA  23269.59277635 -.00000363  00000-0 -47361-5 0  9992,2 54205  53.2179  52.0094 0001417  97.0082 263.1071 15.08834871 50879,6917.896,95.438,540.741,538.781,0.0
54205.0,STARLINK-5249,PAYLOAD,2023-09-26 15:48:59,15.0883571,0.0001369,53.2174,51.7118,92.4206,267.6943,2.6965e-05,1.41e-06,0.0,0 STARLINK-5249,1 54205U 22141BA  23269.65901651  .00000141  00000-0  26965-4 0  9999,2 54205  53.2174  51.7118 0001369  92.4206 267.6943 15.08835710 50881,6917.894,95.438,540.706,538.811,0.0
54205.0,STARLINK-5249,PAYLOAD,2023-09-27 09:18:13,15.08839456,0.0001232,53.2183,48.4414,84.5695,275.5438,0.0001662,2.358e-05,0.0,0 STARLINK-5249,1 54205U 22141BA  23270.38765845  .00002358  00000-0  16620-3 0  9992,2 54205  53.2183  48.4414 0001232  84.5695 275.5438 15.08839456 50996,6917.882,95.438,540.599,538.895,0.0
54205.0,STARLINK-5249,PAYLOAD,2023-09-27 15:39:46,15.08846806,0.0001477,53.2175,47.2534,80.0671,280.0488,0.00030176,4.519e-05,0.0,0 STARLINK-5249,1 54205U 22141BA  23270.65261662  .00004519  00000-0  30176-3 0  9993,2 54205  53.2175  47.2534 0001477  80.0671 280.0488 15.08846806 51267,6917.86,95.437,540.746,538.703,0.0
54205.0,STARLINK-5249,PAYLOAD,2023-09-28 09:09:00,15.0884074,0.0001401,53.2173,43.9824,75.6814,284.4333,0.00019248,2.777e-05,0.0,0 STARLINK-5249,1 54205U 22141BA  23271.38125970  .00002777  00000-0  19248-3 0  9996,2 54205  53.2173  43.9824 0001401  75.6814 284.4333 15.08840740 51376,6917.878,95.438,540.712,538.774,0.0
54205.0,STARLINK-5249,PAYLOAD,2023-09-28 13:55:10,15.08841832,0.0001388,53.2175,43.0902,75.0455,285.0691,0.00018142,2.601e-05,0.0,0 STARLINK-5249,1 54205U 22141BA  23271.57997935  .00002601  00000-0  18142-3 0  9993,2 54205  53.2175  43.0902 0001388  75.0455 285.0691 15.08841832 51170,6917.875,95.437,540.7,538.78,0.0
54205.0,STARLINK-5249,PAYLOAD,2023-09-28 15:30:33,15.08843382,0.0001373,53.2175,42.793,74.1517,285.9626,0.00020021,2.9e-05,0.0,0 STARLINK-5249,1 54205U 22141BA  23271.64621867  .00002900  00000-0  20021-3 0  9990,2 54205  53.2175  42.7930 0001373  74.1517 285.9626 15.08843382 51180,6917.87,95.437,540.685,538.785,0.0
54205.0,STARLINK-5249,PAYLOAD,2023-09-29 13:45:57,15.08843351,0.0001394,53.2176,38.6311,76.0473,284.0674,8.0361e-05,9.91e-06,0.0,0 STARLINK-5249,1 54205U 22141BA  23272.57357829  .00000991  00000-0  80361-4 0  9999,2 54205  53.2176  38.6311 0001394  76.0473 284.0674 15.08843351 51328,6917.87,95.437,540.699,538.771,0.0
54205.0,STARLINK-5249,PAYLOAD,2023-09-29 15:21:20,15.08847246,0.0001325,53.2177,38.333,80.52,279.5942,0.00010567,1.395e-05,0.0,0 STARLINK-5249,1 54205U 22141BA  23272.63981566  .00001395  00000-0  10567-3 0  9996,2 54205  53.2177  38.3330 0001325  80.5200 279.5942 15.08847246 51569,6917.858,95.437,540.64,538.807,0.0
54205.0,STARLINK-5249,PAYLOAD,2023-09-30 00:53:38,15.08849108,0.0001312,53.2177,36.5494,76.8693,283.2445,0.00010717,1.419e-05,0.0,0 STARLINK-5249,1 54205U 22141BA  23273.03725337  .00001419  00000-0  10717-3 0  9997,2 54205  53.2177  36.5494 0001312  76.8693 283.2445 15.08849108 51390,6917.853,95.437,540.625,538.81,0.0
54205.0,STARLINK-5249,PAYLOAD,2023-09-30 08:50:34,15.08845594,0.000124,53.2204,35.0691,87.1572,272.9562,-0.00011931,-2.186e-05,0.0,0 STARLINK-5249,1 54205U 22141BA  23273.36845657 -.00002186  00000-0 -11931-3 0  9994,2 54205  53.2204  35.0691 0001240  87.1572 272.9562 15.08845594 51676,6917.863,95.437,540.586,538.87,0.0
54205.0,STARLINK-5249,PAYLOAD,2023-10-01 11:52:07,15.08853455,0.0001534,53.2193,30.0107,96.2428,263.8739,0.00019382,2.799e-05,0.0,0 STARLINK-5249,1 54205U 22141BA  23274.49453096  .00002799  00000-0  19382-3 0  9997,2 54205  53.2193  30.0107 0001534  96.2428 263.8739 15.08853455 51846,6917.839,95.437,540.765,538.643,0.0
54205.0,STARLINK-5249,PAYLOAD,2023-10-01 13:27:30,15.08857025,0.0001541,53.2193,29.7135,96.2512,263.8656,0.00025289,3.741e-05,0.0,0 STARLINK-5249,1 54205U 22141BA  23274.56076913  .00003741  00000-0  25289-3 0  9995,2 54205  53.2193  29.7135 0001541  96.2512 263.8656 15.08857025 51625,6917.828,95.436,540.759,538.627,0.0
54205.0,STARLINK-5249,PAYLOAD,2023-10-01 15:02:53,15.08860517,0.0001582,53.2195,29.416,98.9063,261.2108,0.00037441,5.679e-05,0.0,0 STARLINK-5249,1 54205U 22141BA  23274.62700835  .00005679  00000-0  37441-3 0  9994,2 54205  53.2195  29.4160 0001582  98.9063 261.2108 15.08860517 51632,6917.818,95.436,540.777,538.588,0.0
54205.0,STARLINK-5249,PAYLOAD,2023-10-02 14:53:41,15.08826793,0.000169,53.2188,24.9534,77.758,282.3601,-0.00027143,-4.604e-05,0.0,0 STARLINK-5249,1 54205U 22141BA  23275.62061950 -.00004604  00000-0 -27143-3 0  9990,2 54205  53.2188  24.9534 0001690  77.7580 282.3601 15.08826793 52011,6917.921,95.438,540.955,538.617,0.0
54205.0,STARLINK-5249,PAYLOAD,2023-10-03 00:26:00,15.08835573,0.0001734,53.2191,23.1695,79.9474,280.1713,0.00028194,4.201e-05,0.0,0 STARLINK-5249,1 54205U 22141BA  23276.01806174  .00004201  00000-0  28194-3 0  9997,2 54205  53.2191  23.1695 0001734  79.9474 280.1713 15.08835573 52071,6917.894,95.438,540.958,538.559,0.0
54205.0,STARLINK-5249,PAYLOAD,2023-10-03 14:44:28,15.08853752,0.0001675,53.2186,20.4935,74.27,285.8477,0.0011432,0.0001796,0.0,0 STARLINK-5249,1 54205U 22141BA  23276.61422259  .00017960  00000-0  11432-2 0  9993,2 54205  53.2186  20.4935 0001675  74.2700 285.8477 15.08853752 51938,6917.838,95.437,540.862,538.545,0.0
54205.0,STARLINK-5249,PAYLOAD,2023-10-04 11:24:29,15.08855139,0.00014,53.2174,16.6268,93.0434,267.0719,0.00058498,9.038e-05,0.0,0 STARLINK-5249,1 54205U 22141BA  23277.47533829  .00009038  00000-0  58498-3 0  9995,2 54205  53.2174  16.6268 0001400  93.0434 267.0719 15.08855139 52292,6917.834,95.437,540.668,538.731,0.0
54205.0,STARLINK-5249,PAYLOAD,2023-10-04 12:59:52,15.08857255,0.0001417,53.2174,16.3294,86.8698,273.2456,0.00065605,0.00010173,0.0,0 STARLINK-5249,1 54205U 22141BA  23277.54157792  .00010173  00000-0  65605-3 0  9994,2 54205  53.2174  16.3294 0001417  86.8698 273.2456 15.08857255 52072,6917.828,95.436,540.673,538.712,0.0
54205.0,STARLINK-5249,PAYLOAD,2023-10-05 00:07:34,15.08854695,0.0001202,53.2175,14.2501,77.9498,282.1629,0.0006027,9.321e-05,0.0,0 STARLINK-5249,1 54205U 22141BA  23278.00525585  .00009321  00000-0  60270-3 0  9991,2 54205  53.2175  14.2501 0001202  77.9498 282.1629 15.08854695 52371,6917.835,95.437,540.532,538.869,0.0
54205.0,STARLINK-5249,PAYLOAD,2023-10-05 06:29:07,15.08841777,0.0001653,53.2185,13.0598,86.7751,273.343,-5.2764e-05,-1.128e-05,0.0,0 STARLINK-5249,1 54205U 22141BA  23278.27022119 -.00001128  00000-0 -52764-4 0  9994,2 54205  53.2185  13.0598 0001653  86.7751 273.3430 15.08841777 52419,6917.875,95.437,540.883,538.596,0.0
54205.0,STARLINK-5249,PAYLOAD,2023-10-05 12:50:39,15.08845092,0.0001704,53.2183,11.869,96.2577,263.8609,0.00059606,9.212e-05,0.0,0 STARLINK-5249,1 54205U 22141BA  23278.53517945  .00009212  00000-0  59606-3 0  9990,2 54205  53.2183  11.8690 0001704  96.2577 263.8609 15.08845092 52220,6917.865,95.437,540.909,538.551,0.0
54205.0,STARLINK-5249,PAYLOAD,2023-10-06 11:06:04,15.08834361,0.0001386,53.2183,7.7073,100.7168,259.3981,0.0002211,3.232e-05,0.0,0 STARLINK-5249,1 54205U 22141BA  23279.46254698  .00003232  00000-0  22110-3 0  9992,2 54205  53.2183   7.7073 0001386 100.7168 259.3981 15.08834361 52592,6917.898,95.438,540.721,538.804,0.0
54205.0,STARLINK-5249,PAYLOAD,2023-10-06 12:41:27,15.0883865,0.000114,53.2182,7.4097,90.551,269.5613,0.00037583,5.698e-05,0.0,0 STARLINK-5249,1 54205U 22141BA  23279.52878712  .00005698  00000-0  37583-3 0  9996,2 54205  53.2182   7.4097 0001140  90.5510 269.5613 15.08838650 52375,6917.885,95.438,540.538,538.961,0.0
